LIZZIESAT-2 (LS-2)      
1 62383U 24247G   26068.49140277  .00009388  00000+0  34517-3 0  9997
2 62383  44.9909 117.0823 0004092 327.5136  32.5495 15.28222796 67716
STARLINK-35692          
1 66513U 25263AE  26068.14409341  .00028183  00000+0  10285-2 0  9996
2 66513  43.0000 353.9242 0000937 256.6074 103.4673 15.27618533 18810
